[{"OBJECT_NAME":"JILIN-1 GAOFEN 03D10","OBJECT_ID":"2022-019S","EPOCH":"2026-03-08T20:38:14.093376","MEAN_MOTION":15.76826248,"ECCENTRICITY":0.00018625,"INCLINATION":97.369,"RA_OF_ASC_NODE":161.0294,"ARG_OF_PERICENTER":223.7306,"MEAN_ANOMALY":136.3813,"EPHEMERIS_TYPE":0,"CLASSIFICATION_TYPE":"U","NORAD_CAT_ID":51840,"ELEMENT_SET_NO":999,"REV_AT_EPOCH":22435,"BSTAR":0.0012715519,"MEAN_MOTION_DOT":0.00208587,"MEAN_MOTION_DDOT":0},{"OBJECT_NAME":"STARLINK-36866","OBJECT_ID":"2026-035S","EPOCH":"2026-03-09T22:00:01.999584","MEAN_MOTION":15.86921353,"ECCENTRICITY":0.00013373,"INCLINATION":97.2683,"RA_OF_ASC_NODE":1.2824,"ARG_OF_PERICENTER":88.5761,"MEAN_ANOMALY":21.093,"EPHEMERIS_TYPE":0,"CLASSIFICATION_TYPE":"U","NORAD_CAT_ID":67895,"ELEMENT_SET_NO":999,"REV_AT_EPOCH":379,"BSTAR":-0.0061588879,"MEAN_MOTION_DOT":-0.01379206,"MEAN_MOTION_DDOT":0}]
